{
"type": "FeatureCollection",
"name": "lutour_catchment_dem",
"crs": { "type": "name", "properties": { "name": "urn:ogc:def:crs:OGC:1.3:CRS84" } },
"features": [
{ "type": "Feature", "properties": { "source": "dem_cop30", "area_km2": 39.493184907533106 }, "geometry": { "type": "Polygon", "coordinates": [ [ [ -0.108750011111104, 42.872916677777781 ], [ -0.108750011111103, 42.872361122222223 ], [ -0.108194455555549, 42.872083344444448 ], [ -0.108194455555548, 42.867638899999989 ], [ -0.108750011111102, 42.867361122222228 ], [ -0.108750011111103, 42.866250011111099 ], [ -0.109027788888882, 42.866250011111099 ], [ -0.109305566666659, 42.861805566666661 ], [ -0.109583344444437, 42.861805566666661 ], [ -0.109583344444437, 42.861250011111103 ], [ -0.109861122222214, 42.861250011111103 ], [ -0.109861122222214, 42.860416677777771 ], [ -0.1101389, 42.860416677777771 ], [ -0.1101389, 42.859861122222213 ], [ -0.110416677777769, 42.859861122222213 ], [ -0.11041667777777, 42.859583344444424 ], [ -0.110972233333326, 42.85930556666667 ], [ -0.110972233333325, 42.858750011111105 ], [ -0.111250011111104, 42.858750011111105 ], [ -0.111250011111104, 42.85791667777778 ], [ -0.111527788888881, 42.85791667777778 ], [ -0.111805566666659, 42.856805566666665 ], [ -0.112083344444438, 42.856805566666665 ], [ -0.112083344444437, 42.85652778888889 ], [ -0.111805566666659, 42.85652778888889 ], [ -0.11180556666666, 42.85597223333334 ], [ -0.111527788888881, 42.85597223333334 ], [ -0.111527788888881, 42.855416677777789 ], [ -0.111250011111104, 42.855416677777789 ], [ -0.111250011111104, 42.854027788888899 ], [ -0.111527788888881, 42.854027788888899 ], [ -0.111527788888881, 42.852916677777763 ], [ -0.111250011111104, 42.852916677777763 ], [ -0.111250011111104, 42.849583344444433 ], [ -0.111527788888881, 42.849583344444433 ], [ -0.111527788888881, 42.848750011111093 ], [ -0.11180556666666, 42.848750011111093 ], [ -0.111805566666659, 42.847916677777775 ], [ -0.112083344444437, 42.847916677777775 ], [ -0.112083344444437, 42.8476389 ], [ -0.112361122222215, 42.8476389 ], [ -0.112361122222216, 42.84736112222221 ], [ -0.11291667777777, 42.847083344444442 ], [ -0.11291667777777, 42.84680556666666 ], [ -0.113194455555548, 42.84680556666666 ], [ -0.113194455555548, 42.846527788888892 ], [ -0.113750011111103, 42.84625001111111 ], [ -0.113750011111104, 42.84597223333332 ], [ -0.114027788888882, 42.84597223333332 ], [ -0.114027788888881, 42.845416677777777 ], [ -0.114305566666659, 42.845416677777777 ], [ -0.114305566666659, 42.8451389 ], [ -0.114861122222214, 42.8451389 ], [ -0.114861122222214, 42.844861122222234 ], [ -0.115416677777769, 42.844861122222213 ], [ -0.115694455555549, 42.844305566666677 ], [ -0.11652778888888, 42.844305566666648 ], [ -0.116527788888881, 42.843750011111112 ], [ -0.116805566666659, 42.843750011111112 ], [ -0.116805566666659, 42.843472233333337 ], [ -0.116250011111103, 42.843194455555569 ], [ -0.116250011111103, 42.842916677777772 ], [ -0.11541667777777, 42.842916677777772 ], [ -0.11541667777777, 42.8426389 ], [ -0.1151389, 42.842638899999983 ], [ -0.1151389, 42.842083344444418 ], [ -0.114861122222214, 42.842083344444433 ], [ -0.114861122222215, 42.840416677777775 ], [ -0.115416677777771, 42.840138899999985 ], [ -0.115694455555548, 42.839027788888899 ], [ -0.115972233333326, 42.839027788888878 ], [ -0.115972233333326, 42.838194455555559 ], [ -0.116250011111104, 42.838194455555573 ], [ -0.116250011111104, 42.836805566666683 ], [ -0.115694455555549, 42.836527788888894 ], [ -0.115694455555549, 42.835972233333337 ], [ -0.1151389, 42.835694455555554 ], [ -0.1151389, 42.8351389 ], [ -0.114861122222214, 42.8351389 ], [ -0.114861122222214, 42.834861122222215 ], [ -0.114583344444438, 42.834861122222215 ], [ -0.114583344444437, 42.834305566666664 ], [ -0.114305566666659, 42.834305566666664 ], [ -0.114305566666659, 42.833472233333332 ], [ -0.114583344444438, 42.833472233333332 ], [ -0.114583344444437, 42.833194455555535 ], [ -0.1151389, 42.833194455555542 ], [ -0.1151389, 42.832916677777781 ], [ -0.115694455555549, 42.832916677777781 ], [ -0.115694455555549, 42.8326389 ], [ -0.117083344444437, 42.8326389 ], [ -0.117083344444436, 42.829305566666648 ], [ -0.1176389, 42.829027788888894 ], [ -0.1176389, 42.828750011111104 ], [ -0.118194455555548, 42.828472233333329 ], [ -0.118194455555547, 42.827916677777772 ], [ -0.118472233333325, 42.827916677777779 ], [ -0.118472233333325, 42.827083344444453 ], [ -0.117916677777771, 42.826805566666664 ], [ -0.11791667777777, 42.826250011111114 ], [ -0.1176389, 42.826250011111114 ], [ -0.117361122222215, 42.825694455555549 ], [ -0.117083344444437, 42.825694455555549 ], [ -0.117083344444436, 42.82402778888887 ], [ -0.116805566666659, 42.824027788888891 ], [ -0.116527788888881, 42.822916677777776 ], [ -0.11680556666666, 42.822916677777791 ], [ -0.117083344444437, 42.822361122222212 ], [ -0.1176389, 42.822361122222212 ], [ -0.1176389, 42.822083344444437 ], [ -0.118194455555547, 42.822083344444415 ], [ -0.118194455555548, 42.821805566666669 ], [ -0.120416677777771, 42.821805566666669 ], [ -0.12041667777777, 42.821527788888886 ], [ -0.120972233333326, 42.821527788888886 ], [ -0.120972233333325, 42.821250011111097 ], [ -0.121250011111104, 42.821250011111097 ], [ -0.121250011111103, 42.820972233333329 ], [ -0.121805566666658, 42.820694455555554 ], [ -0.122083344444437, 42.820138899999989 ], [ -0.1226389, 42.820138899999989 ], [ -0.12291667777777, 42.819583344444439 ], [ -0.123472233333326, 42.819583344444439 ], [ -0.123472233333325, 42.81930556666665 ], [ -0.123750011111104, 42.819305566666664 ], [ -0.123750011111104, 42.818750011111113 ], [ -0.124027788888881, 42.818750011111113 ], [ -0.124027788888881, 42.817916677777767 ], [ -0.124583344444436, 42.8176389 ], [ -0.124583344444436, 42.817083344444427 ], [ -0.124861122222215, 42.817083344444427 ], [ -0.124861122222215, 42.815972233333333 ], [ -0.12541667777777, 42.815694455555551 ], [ -0.12541667777777, 42.8151389 ], [ -0.125694455555548, 42.8151389 ], [ -0.125694455555548, 42.814027788888886 ], [ -0.125972233333326, 42.814027788888872 ], [ -0.125972233333325, 42.811805566666642 ], [ -0.126250011111103, 42.811805566666656 ], [ -0.126250011111104, 42.810694455555549 ], [ -0.125972233333326, 42.810694455555549 ], [ -0.125972233333325, 42.8101389 ], [ -0.125694455555548, 42.8101389 ], [ -0.125694455555548, 42.809583344444448 ], [ -0.12541667777777, 42.809583344444448 ], [ -0.125416677777771, 42.809305566666666 ], [ -0.125694455555548, 42.809305566666666 ], [ -0.125694455555548, 42.808750011111108 ], [ -0.12541667777777, 42.808750011111108 ], [ -0.12541667777777, 42.807916677777776 ], [ -0.1251389, 42.807916677777776 ], [ -0.1251389, 42.8076389 ], [ -0.124861122222215, 42.8076389 ], [ -0.124583344444436, 42.807083344444457 ], [ -0.124305566666659, 42.807083344444457 ], [ -0.124027788888881, 42.806527788888879 ], [ -0.123472233333327, 42.806527788888886 ], [ -0.123472233333326, 42.805972233333321 ], [ -0.123194455555548, 42.805972233333321 ], [ -0.123194455555549, 42.8051389 ], [ -0.122916677777771, 42.8051389 ], [ -0.12291667777777, 42.803472233333331 ], [ -0.122361122222214, 42.803194455555548 ], [ -0.122361122222215, 42.8026389 ], [ -0.122083344444438, 42.8026389 ], [ -0.122083344444437, 42.80236112222223 ], [ -0.121805566666659, 42.80236112222223 ], [ -0.121805566666658, 42.801805566666665 ], [ -0.121527788888882, 42.801805566666665 ], [ -0.121527788888882, 42.800972233333333 ], [ -0.120972233333326, 42.800694455555544 ], [ -0.120972233333325, 42.79958334444445 ], [ -0.121250011111103, 42.79958334444445 ], [ -0.121250011111104, 42.798472233333328 ], [ -0.121527788888881, 42.798472233333328 ], [ -0.121527788888881, 42.797916677777778 ], [ -0.121805566666659, 42.797916677777785 ], [ -0.121805566666659, 42.797361122222235 ], [ -0.122083344444437, 42.797361122222235 ], [ -0.122083344444437, 42.797083344444424 ], [ -0.123194455555548, 42.79680556666667 ], [ -0.123472233333327, 42.79625001111112 ], [ -0.124027788888881, 42.79625001111112 ], [ -0.124027788888882, 42.795972233333337 ], [ -0.124305566666659, 42.795972233333323 ], [ -0.124583344444437, 42.795416677777773 ], [ -0.1251389, 42.795416677777773 ], [ -0.1251389, 42.7951389 ], [ -0.125972233333326, 42.7951389 ], [ -0.125972233333325, 42.794861122222223 ], [ -0.12652778888888, 42.794861122222215 ], [ -0.126805566666659, 42.794305566666665 ], [ -0.127361122222215, 42.794305566666665 ], [ -0.127361122222215, 42.794027788888883 ], [ -0.12791667777777, 42.793750011111115 ], [ -0.12791667777777, 42.793472233333333 ], [ -0.127361122222215, 42.793194455555572 ], [ -0.127361122222214, 42.792638899999986 ], [ -0.127083344444437, 42.792638899999986 ], [ -0.127083344444438, 42.792083344444464 ], [ -0.126805566666658, 42.792083344444464 ], [ -0.126805566666658, 42.791527788888899 ], [ -0.126250011111103, 42.791250011111103 ], [ -0.126250011111104, 42.790972233333328 ], [ -0.125972233333326, 42.790972233333328 ], [ -0.125972233333325, 42.789861122222213 ], [ -0.125694455555548, 42.789861122222227 ], [ -0.12541667777777, 42.789305566666663 ], [ -0.1251389, 42.789305566666663 ], [ -0.1251389, 42.788750011111105 ], [ -0.124861122222215, 42.788750011111105 ], [ -0.124861122222215, 42.787638900000012 ], [ -0.124583344444436, 42.787638900000012 ], [ -0.124583344444436, 42.7862500111111 ], [ -0.124027788888881, 42.785972233333318 ], [ -0.123750011111103, 42.785416677777775 ], [ -0.121805566666659, 42.785416677777803 ], [ -0.121805566666659, 42.785694455555557 ], [ -0.120972233333325, 42.785694455555557 ], [ -0.120972233333326, 42.785972233333339 ], [ -0.12041667777777, 42.785972233333339 ], [ -0.120416677777771, 42.7862500111111 ], [ -0.118750011111104, 42.786527788888897 ], [ -0.118750011111103, 42.7862500111111 ], [ -0.118194455555549, 42.7862500111111 ], [ -0.118194455555547, 42.785972233333339 ], [ -0.117361122222215, 42.785972233333318 ], [ -0.117361122222215, 42.785694455555557 ], [ -0.116805566666659, 42.785416677777775 ], [ -0.116527788888881, 42.784861122222203 ], [ -0.115694455555549, 42.78486112222221 ], [ -0.11541667777777, 42.784305566666667 ], [ -0.114861122222214, 42.784305566666667 ], [ -0.114861122222214, 42.784027788888885 ], [ -0.114305566666659, 42.78375001111111 ], [ -0.114305566666659, 42.78347223333332 ], [ -0.113194455555548, 42.78347223333332 ], [ -0.113194455555548, 42.783194455555574 ], [ -0.109861122222214, 42.783194455555552 ], [ -0.109583344444437, 42.7826389 ], [ -0.108750011111104, 42.7826389 ], [ -0.108750011111102, 42.782361122222234 ], [ -0.108472233333325, 42.782361122222234 ], [ -0.108472233333325, 42.781250011111098 ], [ -0.10791667777777, 42.781250011111098 ], [ -0.107916677777771, 42.78097223333333 ], [ -0.107083344444436, 42.78097223333333 ], [ -0.106805566666659, 42.780416677777779 ], [ -0.106250011111104, 42.780416677777779 ], [ -0.106250011111104, 42.7801389 ], [ -0.1051389, 42.7801389 ], [ -0.1051389, 42.779861122222215 ], [ -0.104027788888881, 42.779583344444418 ], [ -0.104027788888881, 42.779305566666658 ], [ -0.1026389, 42.779305566666658 ], [ -0.1026389, 42.779027788888889 ], [ -0.102361122222215, 42.779027788888889 ], [ -0.102083344444438, 42.778472233333339 ], [ -0.101527788888881, 42.778472233333325 ], [ -0.101527788888881, 42.77819445555555 ], [ -0.10041667777777, 42.777916677777775 ], [ -0.10041667777777, 42.7776389 ], [ -0.099583344444437, 42.7776389 ], [ -0.099583344444437, 42.777361122222231 ], [ -0.099027788888881, 42.777361122222239 ], [ -0.099027788888881, 42.777083344444442 ], [ -0.098194455555548, 42.777083344444442 ], [ -0.098194455555548, 42.777361122222239 ], [ -0.0976389, 42.777361122222231 ], [ -0.0976389, 42.776527788888885 ], [ -0.09791667777777, 42.776527788888885 ], [ -0.097916677777769, 42.776250011111117 ], [ -0.0976389, 42.776250011111117 ], [ -0.0976389, 42.774027788888894 ], [ -0.09791667777777, 42.774027788888894 ], [ -0.097916677777769, 42.772361122222215 ], [ -0.09680556666666, 42.772361122222208 ], [ -0.096805566666659, 42.772083344444432 ], [ -0.095694455555547, 42.771805566666664 ], [ -0.095694455555548, 42.771527788888889 ], [ -0.0951389, 42.771527788888889 ], [ -0.0951389, 42.771250011111121 ], [ -0.09430556666666, 42.771250011111107 ], [ -0.094305566666659, 42.770972233333325 ], [ -0.093750011111103, 42.770972233333325 ], [ -0.093750011111103, 42.771250011111107 ], [ -0.093194455555547, 42.771250011111107 ], [ -0.093194455555548, 42.771527788888889 ], [ -0.092361122222214, 42.771527788888875 ], [ -0.092361122222214, 42.771805566666664 ], [ -0.089027788888882, 42.771805566666664 ], [ -0.089027788888881, 42.772083344444432 ], [ -0.088194455555548, 42.772083344444432 ], [ -0.088194455555548, 42.772361122222208 ], [ -0.086805566666659, 42.772361122222208 ], [ -0.086805566666659, 42.772638900000011 ], [ -0.086250011111103, 42.772638900000011 ], [ -0.086250011111104, 42.772916677777786 ], [ -0.08541667777777, 42.7729166777778 ], [ -0.08541667777777, 42.77319445555554 ], [ -0.084861122222215, 42.773472233333329 ], [ -0.084861122222215, 42.774027788888894 ], [ -0.084583344444436, 42.774027788888894 ], [ -0.084583344444437, 42.774305566666648 ], [ -0.084027788888882, 42.774583344444444 ], [ -0.083750011111103, 42.7751389 ], [ -0.083194455555548, 42.7751389 ], [ -0.083194455555549, 42.775416677777784 ], [ -0.0826389, 42.775694455555566 ], [ -0.0826389, 42.776250011111117 ], [ -0.082361122222214, 42.776250011111117 ], [ -0.082361122222215, 42.776805566666653 ], [ -0.082083344444436, 42.776805566666653 ], [ -0.081805566666658, 42.77736112222221 ], [ -0.080694455555548, 42.777361122222231 ], [ -0.080694455555548, 42.7776389 ], [ -0.079861122222215, 42.7776389 ], [ -0.079861122222215, 42.777916677777775 ], [ -0.079305566666658, 42.777916677777775 ], [ -0.079305566666659, 42.77819445555555 ], [ -0.079027788888883, 42.77819445555555 ], [ -0.079027788888881, 42.7787500111111 ], [ -0.078750011111103, 42.7787500111111 ], [ -0.078750011111104, 42.779305566666672 ], [ -0.078472233333325, 42.779305566666658 ], [ -0.078472233333326, 42.779583344444447 ], [ -0.07791667777777, 42.779583344444447 ], [ -0.07791667777777, 42.780138900000011 ], [ -0.077361122222215, 42.780416677777779 ], [ -0.077361122222214, 42.78097223333333 ], [ -0.077083344444436, 42.78097223333333 ], [ -0.077083344444437, 42.781250011111098 ], [ -0.076527788888883, 42.781250011111098 ], [ -0.076250011111104, 42.781805566666662 ], [ -0.07541667777777, 42.781805566666655 ], [ -0.0751389, 42.782361122222234 ], [ -0.074583344444436, 42.782361122222234 ], [ -0.074583344444437, 42.7826389 ], [ -0.074027788888882, 42.782916677777784 ], [ -0.074027788888881, 42.783194455555552 ], [ -0.073472233333326, 42.78347223333332 ], [ -0.073472233333326, 42.78375001111111 ], [ -0.07291667777777, 42.78375001111111 ], [ -0.07291667777777, 42.784027788888885 ], [ -0.072361122222215, 42.784305566666667 ], [ -0.072361122222215, 42.784583344444442 ], [ -0.0726389, 42.784583344444442 ], [ -0.0726389, 42.784861122222203 ], [ -0.073194455555549, 42.7851389 ], [ -0.073472233333325, 42.785694455555557 ], [ -0.073750011111103, 42.785694455555557 ], [ -0.073750011111104, 42.7862500111111 ], [ -0.074027788888882, 42.7862500111111 ], [ -0.074027788888882, 42.786527788888897 ], [ -0.073750011111103, 42.786527788888897 ], [ -0.073750011111103, 42.788472233333344 ], [ -0.073472233333327, 42.788472233333358 ], [ -0.073472233333326, 42.79041667777777 ], [ -0.073194455555548, 42.79041667777777 ], [ -0.073194455555548, 42.79180556666666 ], [ -0.073472233333325, 42.79180556666666 ], [ -0.073472233333327, 42.792083344444471 ], [ -0.074027788888882, 42.792361122222196 ], [ -0.074027788888882, 42.792638899999986 ], [ -0.074861122222214, 42.792638899999986 ], [ -0.0751389, 42.793194455555572 ], [ -0.075694455555549, 42.793194455555572 ], [ -0.075694455555549, 42.793472233333333 ], [ -0.076527788888882, 42.793472233333333 ], [ -0.076527788888881, 42.793750011111115 ], [ -0.076805566666658, 42.793750011111115 ], [ -0.076805566666659, 42.794861122222223 ], [ -0.07652778888888, 42.794861122222215 ], [ -0.076527788888881, 42.795416677777759 ], [ -0.075972233333325, 42.795416677777773 ], [ -0.075972233333325, 42.795694455555534 ], [ -0.075694455555549, 42.795694455555541 ], [ -0.075694455555547, 42.795972233333337 ], [ -0.0751389, 42.795972233333337 ], [ -0.0751389, 42.79625001111112 ], [ -0.074583344444436, 42.79625001111112 ], [ -0.074583344444436, 42.796527788888888 ], [ -0.074027788888882, 42.796527788888888 ], [ -0.074027788888882, 42.79708334444441 ], [ -0.073750011111103, 42.797083344444424 ], [ -0.073472233333325, 42.79763890000001 ], [ -0.073194455555549, 42.79763890000001 ], [ -0.073194455555547, 42.798194455555567 ], [ -0.0726389, 42.798472233333328 ], [ -0.0726389, 42.79875001111111 ], [ -0.072361122222216, 42.79875001111111 ], [ -0.072361122222215, 42.799305566666661 ], [ -0.072083344444437, 42.799305566666661 ], [ -0.072083344444437, 42.79958334444445 ], [ -0.071805566666659, 42.79958334444445 ], [ -0.071805566666659, 42.8001389 ], [ -0.071250011111103, 42.800416677777761 ], [ -0.071250011111103, 42.80152778888889 ], [ -0.070972233333326, 42.80152778888889 ], [ -0.070972233333326, 42.80180556666668 ], [ -0.070694455555549, 42.801805566666665 ], [ -0.07041667777777, 42.80236112222223 ], [ -0.0701389, 42.80236112222223 ], [ -0.0701389, 42.803194455555548 ], [ -0.069861122222215, 42.803194455555563 ], [ -0.069861122222214, 42.803472233333331 ], [ -0.07041667777777, 42.803750011111106 ], [ -0.07041667777777, 42.804027788888902 ], [ -0.071250011111103, 42.804027788888902 ], [ -0.071250011111104, 42.804305566666663 ], [ -0.07180556666666, 42.804305566666663 ], [ -0.072083344444437, 42.804861122222235 ], [ -0.072361122222216, 42.804861122222221 ], [ -0.072361122222214, 42.805416677777771 ], [ -0.0726389, 42.805416677777771 ], [ -0.0726389, 42.805972233333321 ], [ -0.072361122222215, 42.805972233333321 ], [ -0.072361122222215, 42.806250011111104 ], [ -0.071805566666659, 42.806250011111089 ], [ -0.071527788888882, 42.806805566666668 ], [ -0.070972233333326, 42.806805566666675 ], [ -0.070972233333326, 42.807083344444479 ], [ -0.070694455555548, 42.807083344444457 ], [ -0.07041667777777, 42.8076389 ], [ -0.069861122222214, 42.8076389 ], [ -0.069861122222214, 42.807916677777776 ], [ -0.069583344444437, 42.807916677777776 ], [ -0.069583344444437, 42.808194455555544 ], [ -0.069027788888882, 42.808472233333333 ], [ -0.068750011111104, 42.809027788888883 ], [ -0.068194455555548, 42.809027788888883 ], [ -0.068194455555547, 42.809305566666666 ], [ -0.067916677777771, 42.809305566666666 ], [ -0.067916677777771, 42.8101389 ], [ -0.0676389, 42.8101389 ], [ -0.067361122222215, 42.811250011111085 ], [ -0.067083344444438, 42.81125001111112 ], [ -0.067083344444437, 42.811805566666656 ], [ -0.066805566666659, 42.811805566666656 ], [ -0.066805566666659, 42.8126389 ], [ -0.067083344444437, 42.8126389 ], [ -0.067083344444437, 42.812916677777785 ], [ -0.066805566666659, 42.812916677777771 ], [ -0.066805566666659, 42.813472233333329 ], [ -0.066250011111104, 42.813750011111097 ], [ -0.066250011111103, 42.814027788888886 ], [ -0.065694455555549, 42.814305566666675 ], [ -0.065694455555549, 42.814861122222226 ], [ -0.06541667777777, 42.814861122222219 ], [ -0.06541667777777, 42.815694455555551 ], [ -0.0651389, 42.815694455555551 ], [ -0.0651389, 42.816250011111116 ], [ -0.064861122222214, 42.816250011111116 ], [ -0.064861122222214, 42.8176389 ], [ -0.064583344444437, 42.8176389 ], [ -0.064583344444437, 42.818194455555549 ], [ -0.064305566666659, 42.818194455555556 ], [ -0.064305566666659, 42.819305566666664 ], [ -0.063750011111104, 42.819305566666664 ], [ -0.063472233333326, 42.819861122222228 ], [ -0.063194455555548, 42.819861122222228 ], [ -0.063194455555547, 42.820138899999989 ], [ -0.0626389, 42.820416677777764 ], [ -0.0626389, 42.820694455555554 ], [ -0.062916677777771, 42.820694455555554 ], [ -0.062916677777771, 42.821250011111097 ], [ -0.063194455555547, 42.821250011111097 ], [ -0.063472233333326, 42.822361122222212 ], [ -0.063750011111103, 42.822361122222212 ], [ -0.064027788888882, 42.822916677777776 ], [ -0.064305566666659, 42.822916677777776 ], [ -0.064583344444437, 42.823472233333341 ], [ -0.064861122222214, 42.823472233333341 ], [ -0.064861122222214, 42.824027788888891 ], [ -0.0651389, 42.82402778888887 ], [ -0.06541667777777, 42.824583344444449 ], [ -0.065694455555549, 42.824583344444449 ], [ -0.065694455555549, 42.8251389 ], [ -0.065972233333326, 42.825138900000027 ], [ -0.065972233333326, 42.825694455555563 ], [ -0.066250011111103, 42.825694455555549 ], [ -0.066250011111104, 42.826527788888882 ], [ -0.066527788888881, 42.826527788888882 ], [ -0.066527788888881, 42.827916677777779 ], [ -0.06680556666666, 42.827916677777793 ], [ -0.066805566666659, 42.828472233333343 ], [ -0.067361122222215, 42.828750011111104 ], [ -0.067361122222215, 42.832916677777781 ], [ -0.0676389, 42.832916677777781 ], [ -0.0676389, 42.833472233333339 ], [ -0.067916677777771, 42.833472233333332 ], [ -0.067916677777771, 42.834861122222215 ], [ -0.068472233333326, 42.834861122222215 ], [ -0.068750011111104, 42.835416677777779 ], [ -0.069305566666659, 42.835416677777779 ], [ -0.069305566666658, 42.835694455555554 ], [ -0.069583344444437, 42.835694455555554 ], [ -0.069583344444436, 42.835972233333337 ], [ -0.0701389, 42.836250011111105 ], [ -0.0701389, 42.836527788888873 ], [ -0.07041667777777, 42.836527788888873 ], [ -0.070694455555548, 42.837083344444437 ], [ -0.070972233333326, 42.837083344444437 ], [ -0.070972233333326, 42.8376389 ], [ -0.071527788888882, 42.83791667777777 ], [ -0.071527788888882, 42.838472233333334 ], [ -0.071805566666659, 42.838472233333334 ], [ -0.071805566666658, 42.840138899999971 ], [ -0.071527788888882, 42.840138899999985 ], [ -0.071527788888882, 42.84069445555555 ], [ -0.071250011111103, 42.84069445555555 ], [ -0.070972233333326, 42.841805566666679 ], [ -0.071250011111103, 42.841805566666665 ], [ -0.071250011111103, 42.843194455555569 ], [ -0.071805566666659, 42.843472233333337 ], [ -0.071805566666659, 42.844027788888894 ], [ -0.072083344444436, 42.844027788888894 ], [ -0.072083344444437, 42.8451389 ], [ -0.072361122222215, 42.8451389 ], [ -0.072361122222215, 42.84597223333332 ], [ -0.0726389, 42.84597223333332 ], [ -0.07291667777777, 42.846527788888885 ], [ -0.073194455555549, 42.846527788888885 ], [ -0.073194455555549, 42.847083344444442 ], [ -0.073472233333325, 42.847083344444442 ], [ -0.073472233333326, 42.8476389 ], [ -0.073750011111104, 42.8476389 ], [ -0.073750011111103, 42.848472233333325 ], [ -0.074027788888881, 42.848472233333325 ], [ -0.074027788888881, 42.852638899999988 ], [ -0.074305566666659, 42.852638899999988 ], [ -0.074305566666659, 42.853750011111103 ], [ -0.074027788888881, 42.853750011111117 ], [ -0.074027788888882, 42.854027788888899 ], [ -0.073472233333327, 42.854027788888907 ], [ -0.073194455555549, 42.85458334444445 ], [ -0.07291667777777, 42.85458334444445 ], [ -0.07291667777777, 42.854861122222218 ], [ -0.072361122222215, 42.8551389 ], [ -0.072361122222216, 42.855416677777789 ], [ -0.071805566666659, 42.855416677777789 ], [ -0.071805566666659, 42.85597223333334 ], [ -0.071527788888881, 42.855972233333347 ], [ -0.071527788888882, 42.856250011111115 ], [ -0.070972233333326, 42.856527788888897 ], [ -0.070972233333326, 42.856805566666665 ], [ -0.07041667777777, 42.856805566666665 ], [ -0.07041667777777, 42.8576389 ], [ -0.070694455555549, 42.8576389 ], [ -0.070694455555549, 42.85791667777778 ], [ -0.071250011111104, 42.858194455555555 ], [ -0.071250011111104, 42.859861122222213 ], [ -0.071805566666659, 42.859861122222213 ], [ -0.071805566666659, 42.8601389 ], [ -0.072361122222215, 42.860416677777771 ], [ -0.072361122222216, 42.860972233333335 ], [ -0.072916677777771, 42.861250011111103 ], [ -0.073194455555548, 42.862361122222218 ], [ -0.073472233333326, 42.862361122222239 ], [ -0.073472233333326, 42.862638899999979 ], [ -0.07541667777777, 42.862638899999979 ], [ -0.075694455555549, 42.863194455555544 ], [ -0.076250011111103, 42.862916677777775 ], [ -0.076527788888881, 42.863472233333326 ], [ -0.077083344444437, 42.863472233333326 ], [ -0.077083344444437, 42.863750011111122 ], [ -0.079027788888881, 42.863750011111122 ], [ -0.079027788888882, 42.86402778888889 ], [ -0.0801389, 42.86402778888889 ], [ -0.0801389, 42.865416677777773 ], [ -0.080694455555548, 42.865694455555541 ], [ -0.080694455555548, 42.865972233333338 ], [ -0.080416677777769, 42.865972233333338 ], [ -0.080416677777769, 42.867083344444453 ], [ -0.080694455555548, 42.867083344444453 ], [ -0.080694455555548, 42.867361122222228 ], [ -0.080972233333325, 42.867361122222228 ], [ -0.080972233333325, 42.867638899999989 ], [ -0.081527788888882, 42.867916677777757 ], [ -0.081527788888882, 42.868194455555546 ], [ -0.081805566666658, 42.868194455555546 ], [ -0.082083344444437, 42.868750011111104 ], [ -0.082361122222214, 42.868750011111104 ], [ -0.0826389, 42.869305566666668 ], [ -0.083194455555548, 42.869305566666668 ], [ -0.083472233333327, 42.869861122222225 ], [ -0.0851389, 42.869861122222211 ], [ -0.0851389, 42.8701389 ], [ -0.085694455555548, 42.8701389 ], [ -0.085694455555548, 42.870416677777769 ], [ -0.086250011111104, 42.870694455555558 ], [ -0.086250011111103, 42.870972233333326 ], [ -0.0901389, 42.870972233333326 ], [ -0.0901389, 42.871250011111108 ], [ -0.093472233333325, 42.871250011111108 ], [ -0.093472233333326, 42.871527788888869 ], [ -0.0951389, 42.871527788888869 ], [ -0.09541667777777, 42.872083344444434 ], [ -0.097361122222215, 42.872083344444434 ], [ -0.097361122222215, 42.872361122222223 ], [ -0.098750011111103, 42.872361122222209 ], [ -0.098750011111104, 42.8726389 ], [ -0.102083344444437, 42.8726389 ], [ -0.102083344444438, 42.872361122222223 ], [ -0.103194455555548, 42.872361122222223 ], [ -0.103194455555548, 42.8726389 ], [ -0.103750011111103, 42.872638899999984 ], [ -0.103750011111103, 42.872361122222223 ], [ -0.10791667777777, 42.872361122222223 ], [ -0.108194455555548, 42.872916677777781 ], [ -0.108750011111104, 42.872916677777781 ] ] ] } }
]
}
